[{"OBJECT_NAME":"SL-8 R/B","OBJECT_ID":"1990-078B","EPOCH":"2026-03-03T12:39:35.388288","MEAN_MOTION":14.88816306,"ECCENTRICITY":0.0363742,"INCLINATION":82.8989,"RA_OF_ASC_NODE":256.8532,"ARG_OF_PERICENTER":34.7004,"MEAN_ANOMALY":327.7365,"EPHEMERIS_TYPE":0,"CLASSIFICATION_TYPE":"U","NORAD_CAT_ID":20775,"ELEMENT_SET_NO":999,"REV_AT_EPOCH":80838,"BSTAR":0.00054752,"MEAN_MOTION_DOT":0.00018627,"MEAN_MOTION_DDOT":0},{"OBJECT_NAME":"SL-8 R/B","OBJECT_ID":"1991-006B","EPOCH":"2026-03-03T19:48:04.314816","MEAN_MOTION":13.77493424,"ECCENTRICITY":0.00233775,"INCLINATION":82.9464,"RA_OF_ASC_NODE":174.4054,"ARG_OF_PERICENTER":54.1372,"MEAN_ANOMALY":64.714,"EPHEMERIS_TYPE":0,"CLASSIFICATION_TYPE":"U","NORAD_CAT_ID":21088,"ELEMENT_SET_NO":999,"REV_AT_EPOCH":76326,"BSTAR":4.9724088e-5,"MEAN_MOTION_DOT":6.5e-7,"MEAN_MOTION_DDOT":0},{"OBJECT_NAME":"OKEAN-3","OBJECT_ID":"1991-039A","EPOCH":"2026-03-03T19:51:19.432800","MEAN_MOTION":15.04754212,"ECCENTRICITY":0.00142984,"INCLINATION":82.5199,"RA_OF_ASC_NODE":342.5215,"ARG_OF_PERICENTER":359.5425,"MEAN_ANOMALY":0.5786,"EPHEMERIS_TYPE":0,"CLASSIFICATION_TYPE":"U","NORAD_CAT_ID":21397,"ELEMENT_SET_NO":999,"REV_AT_EPOCH":86415,"BSTAR":0.00031253988,"MEAN_MOTION_DOT":4.441e-5,"MEAN_MOTION_DDOT":0},{"OBJECT_NAME":"COSMOS 2151","OBJECT_ID":"1991-042A","EPOCH":"2026-03-03T22:43:21.482688","MEAN_MOTION":15.00078353,"ECCENTRICITY":0.0014128,"INCLINATION":82.4928,"RA_OF_ASC_NODE":89.2174,"ARG_OF_PERICENTER":80.6706,"MEAN_ANOMALY":279.6114,"EPHEMERIS_TYPE":0,"CLASSIFICATION_TYPE":"U","NORAD_CAT_ID":21422,"ELEMENT_SET_NO":999,"REV_AT_EPOCH":86233,"BSTAR":0.00023463762,"MEAN_MOTION_DOT":2.955e-5,"MEAN_MOTION_DDOT":0},{"OBJECT_NAME":"SL-14 R/B","OBJECT_ID":"1991-042B","EPOCH":"2026-03-03T19:34:15.525408","MEAN_MOTION":14.81822532,"ECCENTRICITY":0.00156112,"INCLINATION":82.4912,"RA_OF_ASC_NODE":225.691,"ARG_OF_PERICENTER":259.6022,"MEAN_ANOMALY":100.3433,"EPHEMERIS_TYPE":0,"CLASSIFICATION_TYPE":"U","NORAD_CAT_ID":21423,"ELEMENT_SET_NO":999,"REV_AT_EPOCH":85220,"BSTAR":8.2678766e-5,"MEAN_MOTION_DOT":6.77e-6,"MEAN_MOTION_DDOT":0},{"OBJECT_NAME":"ERS-1","OBJECT_ID":"1991-050A","EPOCH":"2026-03-03T15:35:48.108768","MEAN_MOTION":14.39443809,"ECCENTRICITY":0.00312985,"INCLINATION":98.7885,"RA_OF_ASC_NODE":80.7325,"ARG_OF_PERICENTER":218.6202,"MEAN_ANOMALY":141.2746,"EPHEMERIS_TYPE":0,"CLASSIFICATION_TYPE":"U","NORAD_CAT_ID":21574,"ELEMENT_SET_NO":999,"REV_AT_EPOCH":81486,"BSTAR":0.00014604442,"MEAN_MOTION_DOT":4.11e-6,"MEAN_MOTION_DDOT":0},{"OBJECT_NAME":"ARIANE 40 R/B","OBJECT_ID":"1991-050F","EPOCH":"2026-03-03T17:09:51.780096","MEAN_MOTION":14.42888539,"ECCENTRICITY":0.00043625,"INCLINATION":98.2025,"RA_OF_ASC_NODE":115.1756,"ARG_OF_PERICENTER":94.1843,"MEAN_ANOMALY":265.9846,"EPHEMERIS_TYPE":0,"CLASSIFICATION_TYPE":"U","NORAD_CAT_ID":21610,"ELEMENT_SET_NO":999,"REV_AT_EPOCH":81813,"BSTAR":0.00013199891,"MEAN_MOTION_DOT":3.99e-6,"MEAN_MOTION_DDOT":0},{"OBJECT_NAME":"INTERCOSMOS 25","OBJECT_ID":"1991-086A","EPOCH":"2026-03-03T19:06:39.048192","MEAN_MOTION":12.11981402,"ECCENTRICITY":0.14870538,"INCLINATION":82.6063,"RA_OF_ASC_NODE":313.5699,"ARG_OF_PERICENTER":129.6285,"MEAN_ANOMALY":244.5861,"EPHEMERIS_TYPE":0,"CLASSIFICATION_TYPE":"U","NORAD_CAT_ID":21819,"ELEMENT_SET_NO":999,"REV_AT_EPOCH":49597,"BSTAR":0.00033388557,"MEAN_MOTION_DOT":1.737e-5,"MEAN_MOTION_DDOT":0},{"OBJECT_NAME":"SL-8 R/B","OBJECT_ID":"1992-008B","EPOCH":"2026-03-03T16:30:06.392736","MEAN_MOTION":13.75969819,"ECCENTRICITY":0.00352492,"INCLINATION":82.9227,"RA_OF_ASC_NODE":272.2443,"ARG_OF_PERICENTER":149.688,"MEAN_ANOMALY":277.7695,"EPHEMERIS_TYPE":0,"CLASSIFICATION_TYPE":"U","NORAD_CAT_ID":21876,"ELEMENT_SET_NO":999,"REV_AT_EPOCH":70859,"BSTAR":-8.988967e-6,"MEAN_MOTION_DOT":7.0e-8,"MEAN_MOTION_DDOT":0},{"OBJECT_NAME":"SL-8 R/B","OBJECT_ID":"1992-020B","EPOCH":"2026-03-03T19:28:47.677152","MEAN_MOTION":13.75548716,"ECCENTRICITY":0.00278952,"INCLINATION":82.934,"RA_OF_ASC_NODE":158.1246,"ARG_OF_PERICENTER":315.8977,"MEAN_ANOMALY":161.2475,"EPHEMERIS_TYPE":0,"CLASSIFICATION_TYPE":"U","NORAD_CAT_ID":21938,"ELEMENT_SET_NO":999,"REV_AT_EPOCH":70032,"BSTAR":8.6285434e-5,"MEAN_MOTION_DOT":9.8e-7,"MEAN_MOTION_DDOT":0},{"OBJECT_NAME":"USA 81","OBJECT_ID":"1992-023A","EPOCH":"2026-03-03T17:18:05.319360","MEAN_MOTION":14.32365688,"ECCENTRICITY":0.00026045,"INCLINATION":85.0096,"RA_OF_ASC_NODE":134.8842,"ARG_OF_PERICENTER":82.2583,"MEAN_ANOMALY":277.8905,"EPHEMERIS_TYPE":0,"CLASSIFICATION_TYPE":"U","NORAD_CAT_ID":21949,"ELEMENT_SET_NO":999,"REV_AT_EPOCH":9393,"BSTAR":8.0409348e-5,"MEAN_MOTION_DOT":2.37e-6,"MEAN_MOTION_DDOT":0},{"OBJECT_NAME":"COSMOS 2219","OBJECT_ID":"1992-076A","EPOCH":"2026-03-03T08:48:10.381248","MEAN_MOTION":14.14089002,"ECCENTRICITY":0.00193338,"INCLINATION":71.0618,"RA_OF_ASC_NODE":31.2845,"ARG_OF_PERICENTER":215.5019,"MEAN_ANOMALY":144.4818,"EPHEMERIS_TYPE":0,"CLASSIFICATION_TYPE":"U","NORAD_CAT_ID":22219,"ELEMENT_SET_NO":999,"REV_AT_EPOCH":71748,"BSTAR":0.00018266337,"MEAN_MOTION_DOT":3.01e-6,"MEAN_MOTION_DDOT":0},{"OBJECT_NAME":"SL-16 R/B","OBJECT_ID":"1992-076B","EPOCH":"2026-03-03T20:19:08.336928","MEAN_MOTION":14.16860043,"ECCENTRICITY":0.00106048,"INCLINATION":70.9999,"RA_OF_ASC_NODE":200.6805,"ARG_OF_PERICENTER":107.2129,"MEAN_ANOMALY":4.0235,"EPHEMERIS_TYPE":0,"CLASSIFICATION_TYPE":"U","NORAD_CAT_ID":22220,"ELEMENT_SET_NO":999,"REV_AT_EPOCH":72100,"BSTAR":4.7970072e-5,"MEAN_MOTION_DOT":4.8e-7,"MEAN_MOTION_DDOT":0},{"OBJECT_NAME":"COSMOS 2221","OBJECT_ID":"1992-080A","EPOCH":"2026-03-03T16:26:40.188768","MEAN_MOTION":14.9617404,"ECCENTRICITY":0.00135085,"INCLINATION":82.5018,"RA_OF_ASC_NODE":284.8336,"ARG_OF_PERICENTER":208.1164,"MEAN_ANOMALY":151.933,"EPHEMERIS_TYPE":0,"CLASSIFICATION_TYPE":"U","NORAD_CAT_ID":22236,"ELEMENT_SET_NO":999,"REV_AT_EPOCH":77989,"BSTAR":0.00019891332,"MEAN_MOTION_DOT":2.269e-5,"MEAN_MOTION_DDOT":0},{"OBJECT_NAME":"SL-16 R/B","OBJECT_ID":"1992-093B","EPOCH":"2026-03-03T19:16:37.320672","MEAN_MOTION":14.15449511,"ECCENTRICITY":0.00063016,"INCLINATION":71.0238,"RA_OF_ASC_NODE":16.6219,"ARG_OF_PERICENTER":299.9749,"MEAN_ANOMALY":60.0748,"EPHEMERIS_TYPE":0,"CLASSIFICATION_TYPE":"U","NORAD_CAT_ID":22285,"ELEMENT_SET_NO":999,"REV_AT_EPOCH":71232,"BSTAR":-4.8818284e-5,"MEAN_MOTION_DOT":-1.43e-6,"MEAN_MOTION_DDOT":0},{"OBJECT_NAME":"COSMOS 2228","OBJECT_ID":"1992-094A","EPOCH":"2026-03-03T21:44:40.430400","MEAN_MOTION":14.97156138,"ECCENTRICITY":0.00171778,"INCLINATION":82.5145,"RA_OF_ASC_NODE":242.8493,"ARG_OF_PERICENTER":325.3083,"MEAN_ANOMALY":34.7018,"EPHEMERIS_TYPE":0,"CLASSIFICATION_TYPE":"U","NORAD_CAT_ID":22286,"ELEMENT_SET_NO":999,"REV_AT_EPOCH":77519,"BSTAR":0.00030888929,"MEAN_MOTION_DOT":3.603e-5,"MEAN_MOTION_DDOT":0},{"OBJECT_NAME":"SL-16 R/B","OBJECT_ID":"1993-016B","EPOCH":"2026-03-03T21:55:46.468992","MEAN_MOTION":14.15305477,"ECCENTRICITY":0.00113873,"INCLINATION":71.0059,"RA_OF_ASC_NODE":227.3123,"ARG_OF_PERICENTER":322.1919,"MEAN_ANOMALY":37.8403,"EPHEMERIS_TYPE":0,"CLASSIFICATION_TYPE":"U","NORAD_CAT_ID":22566,"ELEMENT_SET_NO":999,"REV_AT_EPOCH":70135,"BSTAR":0.00019177401,"MEAN_MOTION_DOT":3.26e-6,"MEAN_MOTION_DDOT":0}]
